{"type": "FeatureCollection", "features": [ {"type": "Feature", "properties": {"norad_id": 40534, "name": "GPS BIIF-9  (PRN 26)", "group": "gps-ops", "lat": -7.9929924860851305, "lon": 37.37340295541651, "alt_km": 20433.231097083302, "timestamp": "2025-12-26T07:29:18.714625+00:00", "meta": {"OBJECT_NAME": "GPS BIIF-9  (PRN 26)", "OBJECT_ID": "2015-013A", "EPOCH": "2025-12-25T01:17:18.655296", "MEAN_MOTION": 2.00561796, "ECCENTRICITY": 0.0107504, "INCLINATION": 53.1961, "RA_OF_ASC_NODE": 211.3802, "ARG_OF_PERICENTER": 38.7737, "MEAN_ANOMALY": 322.0645, "EPHEMERIS_TYPE": 0, "CLASSIFICATION_TYPE": "U", "NORAD_CAT_ID": 40534, "ELEMENT_SET_NO": 999, "REV_AT_EPOCH": 7833, "BSTAR": 0, "MEAN_MOTION_DOT": 7.9e-07, "MEAN_MOTION_DDOT": 0}, "tle": {"line1": "1 40534U 15013A   25359.05368814  .00000079  00000+0  00000+0 0  9999", "line2": "2 40534  53.1961 211.3802 0107504  38.7737 322.0645  2.00561796 78331"}}, "geometry": {"type": "Point", "coordinates": [37.37340295541651, -7.9929924860851305]}}, {"type": "Feature", "properties": {"norad_id": 40730, "name": "GPS BIIF-10 (PRN 08)", "group": "gps-ops", "lat": 51.05886634630175, "lon": -22.330115526265324, "alt_km": 19970.353636447544, "timestamp": "2025-12-26T07:29:18.714636+00:00", "meta": {"OBJECT_NAME": "GPS BIIF-10 (PRN 08)", "OBJECT_ID": "2015-033A", "EPOCH": "2025-12-24T17:11:33.292320", "MEAN_MOTION": 2.00564999, "ECCENTRICITY": 0.0111668, "INCLINATION": 54.1203, "RA_OF_ASC_NODE": 274.2801, "ARG_OF_PERICENTER": 27.125, "MEAN_ANOMALY": 333.5048, "EPHEMERIS_TYPE": 0, "CLASSIFICATION_TYPE": "U", "NORAD_CAT_ID": 40730, "ELEMENT_SET_NO": 999, "REV_AT_EPOCH": 7649, "BSTAR": 0, "MEAN_MOTION_DOT": -1.6e-07, "MEAN_MOTION_DDOT": 0}, "tle": {"line1": "1 40730U 15033A   25358.71635755 -.00000016  00000+0  00000+0 0  9994", "line2": "2 40730  54.1203 274.2801 0111668  27.1250 333.5048  2.00564999 76491"}}, "geometry": {"type": "Point", "coordinates": [-22.330115526265324, 51.05886634630175]}}, {"type": "Feature", "properties": {"norad_id": 41019, "name": "GPS BIIF-11 (PRN 10)", "group": "gps-ops", "lat": 23.769436241419207, "lon": 54.2177526798955, "alt_km": 20453.588474728214, "timestamp": "2025-12-26T07:29:18.714667+00:00", "meta": {"OBJECT_NAME": "GPS BIIF-11 (PRN 10)", "OBJECT_ID": "2015-062A", "EPOCH": "2025-12-25T18:32:56.771520", "MEAN_MOTION": 2.00567082, "ECCENTRICITY": 0.01111209, "INCLINATION": 56.8416, "RA_OF_ASC_NODE": 37.4983, "ARG_OF_PERICENTER": 230.2755, "MEAN_ANOMALY": 128.8007, "EPHEMERIS_TYPE": 0, "CLASSIFICATION_TYPE": "U", "NORAD_CAT_ID": 41019, "ELEMENT_SET_NO": 999, "REV_AT_EPOCH": 7435, "BSTAR": 0, "MEAN_MOTION_DOT": -4.8e-07, "MEAN_MOTION_DDOT": 0}, "tle": {"line1": "1 41019U 15062A   25359.77287930 -.00000048  00000+0  00000+0 0  9997", "line2": "2 41019  56.8416  37.4983 0111120 230.2755 128.8007  2.00567082 74356"}}, "geometry": {"type": "Point", "coordinates": [54.2177526798955, 23.769436241419207]}}, {"type": "Feature", "properties": {"norad_id": 41328, "name": "GPS BIIF-12 (PRN 32)", "group": "gps-ops", "lat": -24.658770357416717, "lon": 77.88240341868946, "alt_km": 20165.221953367385, "timestamp": "2025-12-26T07:29:18.714680+00:00", "meta": {"OBJECT_NAME": "GPS BIIF-12 (PRN 32)", "OBJECT_ID": "2016-007A", "EPOCH": "2025-12-24T08:38:21.777792", "MEAN_MOTION": 2.00560136, "ECCENTRICITY": 0.00927395, "INCLINATION": 55.4125, "RA_OF_ASC_NODE": 96.3958, "ARG_OF_PERICENTER": 243.8734, "MEAN_ANOMALY": 115.1833, "EPHEMERIS_TYPE": 0, "CLASSIFICATION_TYPE": "U", "NORAD_CAT_ID": 41328, "ELEMENT_SET_NO": 999, "REV_AT_EPOCH": 7233, "BSTAR": 0, "MEAN_MOTION_DOT": 1.2e-07, "MEAN_MOTION_DDOT": 0}, "tle": {"line1": "1 41328U 16007A   25358.35997428  .00000012  00000+0  00000+0 0  9993", "line2": "2 41328  55.4125  96.3958 0092739 243.8734 115.1833  2.00560136 72333"}}, "geometry": {"type": "Point", "coordinates": [77.88240341868946, -24.658770357416717]}}, {"type": "Feature", "properties": {"norad_id": 43873, "name": "GPS BIII-1  (PRN 04)", "group": "gps-ops", "lat": -34.27631492119231, "lon": -53.15843681024766, "alt_km": 20098.502344477994, "timestamp": "2025-12-26T07:29:18.714692+00:00", "meta": {"OBJECT_NAME": "GPS BIII-1  (PRN 04)", "OBJECT_ID": "2018-109A", "EPOCH": "2025-12-24T12:17:00.757248", "MEAN_MOTION": 2.00553945, "ECCENTRICITY": 0.00376159, "INCLINATION": 55.5731, "RA_OF_ASC_NODE": 99.0827, "ARG_OF_PERICENTER": 195.5593, "MEAN_ANOMALY": 167.4766, "EPHEMERIS_TYPE": 0, "CLASSIFICATION_TYPE": "U", "NORAD_CAT_ID": 43873, "ELEMENT_SET_NO": 999, "REV_AT_EPOCH": 5157, "BSTAR": 0, "MEAN_MOTION_DOT": 1.7e-07, "MEAN_MOTION_DDOT": 0}, "tle": {"line1": "1 43873U 18109A   25358.51181432  .00000017  00000+0  00000+0 0  9998", "line2": "2 43873  55.5731  99.0827 0037615 195.5593 167.4766  2.00553945 51575"}}, "geometry": {"type": "Point", "coordinates": [-53.15843681024766, -34.27631492119231]}}, {"type": "Feature", "properties": {"norad_id": 44506, "name": "GPS BIII-2  (PRN 18)", "group": "gps-ops", "lat": 45.83618070414303, "lon": 113.40333685380696, "alt_km": 20146.20906278471, "timestamp": "2025-12-26T07:29:18.714703+00:00", "meta": {"OBJECT_NAME": "GPS BIII-2  (PRN 18)", "OBJECT_ID": "2019-056A", "EPOCH": "2025-12-25T04:27:47.883168", "MEAN_MOTION": 2.00566525, "ECCENTRICITY": 0.00577677, "INCLINATION": 55.7168, "RA_OF_ASC_NODE": 338.0593, "ARG_OF_PERICENTER": 198.6492, "MEAN_ANOMALY": 188.635, "EPHEMERIS_TYPE": 0, "CLASSIFICATION_TYPE": "U", "NORAD_CAT_ID": 44506, "ELEMENT_SET_NO": 999, "REV_AT_EPOCH": 4658, "BSTAR": 0, "MEAN_MOTION_DOT": -5.9e-07, "MEAN_MOTION_DDOT": 0}, "tle": {"line1": "1 44506U 19056A   25359.18597087 -.00000059  00000+0  00000+0 0  9992", "line2": "2 44506  55.7168 338.0593 0057767 198.6492 188.6350  2.00566525 46580"}}, "geometry": {"type": "Point", "coordinates": [113.40333685380696, 45.83618070414303]}}, {"type": "Feature", "properties": {"norad_id": 45854, "name": "GPS BIII-3  (PRN 23)", "group": "gps-ops", "lat": 48.413409438401146, "lon": 83.78236232400832, "alt_km": 20300.0233695808, "timestamp": "2025-12-26T07:29:18.714715+00:00", "meta": {"OBJECT_NAME": "GPS BIII-3  (PRN 23)", "OBJECT_ID": "2020-041A", "EPOCH": "2025-12-24T07:36:15.586848", "MEAN_MOTION": 2.00561688, "ECCENTRICITY": 0.00606528, "INCLINATION": 56.5546, "RA_OF_ASC_NODE": 35.7353, "ARG_OF_PERICENTER": 203.7393, "MEAN_ANOMALY": 219.8521, "EPHEMERIS_TYPE": 0, "CLASSIFICATION_TYPE": "U", "NORAD_CAT_ID": 45854, "ELEMENT_SET_NO": 999, "REV_AT_EPOCH": 4053, "BSTAR": 0, "MEAN_MOTION_DOT": -4.9e-07, "MEAN_MOTION_DDOT": 0}, "tle": {"line1": "1 45854U 20041A   25358.31684707 -.00000049  00000+0  00000+0 0  9994", "line2": "2 45854  56.5546  35.7353 0060652 203.7393 219.8521  2.00561688 40537"}}, "geometry": {"type": "Point", "coordinates": [83.78236232400832, 48.413409438401146]}}, {"type": "Feature", "properties": {"norad_id": 46826, "name": "GPS BIII-4  (PRN 14)", "group": "gps-ops", "lat": 27.88758906459131, "lon": -119.58502730827233, "alt_km": 20347.26428680442, "timestamp": "2025-12-26T07:29:18.714726+00:00", "meta": {"OBJECT_NAME": "GPS BIII-4  (PRN 14)", "OBJECT_ID": "2020-078A", "EPOCH": "2025-12-16T01:06:13.902336", "MEAN_MOTION": 2.00566891, "ECCENTRICITY": 0.0064754, "INCLINATION": 54.0144, "RA_OF_ASC_NODE": 218.2068, "ARG_OF_PERICENTER": 203.3802, "MEAN_ANOMALY": 339.3962, "EPHEMERIS_TYPE": 0, "CLASSIFICATION_TYPE": "U", "NORAD_CAT_ID": 46826, "ELEMENT_SET_NO": 999, "REV_AT_EPOCH": 3783, "BSTAR": 0, "MEAN_MOTION_DOT": 6.7e-07, "MEAN_MOTION_DDOT": 0}, "tle": {"line1": "1 46826U 20078A   25350.04599424  .00000067  00000+0  00000+0 0  9996", "line2": "2 46826  54.0144 218.2068 0064754 203.3802 339.3962  2.00566891 37830"}}, "geometry": {"type": "Point", "coordinates": [-119.58502730827233, 27.88758906459131]}}, {"type": "Feature", "properties": {"norad_id": 48859, "name": "GPS BIII-5  (PRN 11)", "group": "gps-ops", "lat": -31.959558924861305, "lon": -174.9497516039155, "alt_km": 20123.479825006383, "timestamp": "2025-12-26T07:29:18.714738+00:00", "meta": {"OBJECT_NAME": "GPS BIII-5  (PRN 11)", "OBJECT_ID": "2021-054A", "EPOCH": "2025-12-08T04:14:32.423424", "MEAN_MOTION": 2.00553627, "ECCENTRICITY": 0.0024678, "INCLINATION": 55.2581, "RA_OF_ASC_NODE": 340.1367, "ARG_OF_PERICENTER": 233.3993, "MEAN_ANOMALY": 212.8594, "EPHEMERIS_TYPE": 0, "CLASSIFICATION_TYPE": "U", "NORAD_CAT_ID": 48859, "ELEMENT_SET_NO": 999, "REV_AT_EPOCH": 3292, "BSTAR": 0, "MEAN_MOTION_DOT": -8.6e-07, "MEAN_MOTION_DDOT": 0}, "tle": {"line1": "1 48859U 21054A   25342.17676416 -.00000086  00000+0  00000+0 0  9993", "line2": "2 48859  55.2581 340.1367 0024678 233.3993 212.8594  2.00553627 32922"}}, "geometry": {"type": "Point", "coordinates": [-174.9497516039155, -31.959558924861305]}}, {"type": "Feature", "properties": {"norad_id": 55268, "name": "GPS BIII-6  (PRN 28)", "group": "gps-ops", "lat": -54.42721586004953, "lon": 52.6479479020338, "alt_km": 20189.34342320567, "timestamp": "2025-12-26T07:29:18.714750+00:00", "meta": {"OBJECT_NAME": "GPS BIII-6  (PRN 28)", "OBJECT_ID": "2023-009A", "EPOCH": "2025-12-22T10:59:58.065216", "MEAN_MOTION": 2.00554901, "ECCENTRICITY": 0.00037047, "INCLINATION": 55.1065, "RA_OF_ASC_NODE": 155.4638, "ARG_OF_PERICENTER": 355.7912, "MEAN_ANOMALY": 4.4255, "EPHEMERIS_TYPE": 0, "CLASSIFICATION_TYPE": "U", "NORAD_CAT_ID": 55268, "ELEMENT_SET_NO": 999, "REV_AT_EPOCH": 2170, "BSTAR": 0, "MEAN_MOTION_DOT": 7.4e-07, "MEAN_MOTION_DDOT": 0}, "tle": {"line1": "1 55268U 23009A   25356.45831094  .00000074  00000+0  00000+0 0  9994", "line2": "2 55268  55.1065 155.4638 0003704 355.7912   4.4255  2.00554901 21704"}}, "geometry": {"type": "Point", "coordinates": [52.6479479020338, -54.42721586004953]}}]}